start=new Date('2023-06-19T00:00:00.000Z').valueOf();
sats=[{"OBJECT_NAME":"STARLINK-1601","MEAN_MOTION_DDOT":"0.0000000000000","ELEMENT_SET_NO":"999","TIME_SYSTEM":"UTC","APOAPSIS":"548.085","MEAN_ELEMENT_THEORY":"SGP4","SEMIMAJOR_AXIS":"6925.300","PERIAPSIS":"546.244","LAUNCH_DATE":"2020-08-18","ECCENTRICITY":"0.00013290","MEAN_MOTION_DOT":"0.00012280","MEAN_MOTION":"15.06415943","FILE":"3936420","RCS_SIZE":"LARGE","OBJECT_ID":"2020-057D","EPHEMERIS_TYPE":"0","COUNTRY_CODE":"US","RA_OF_ASC_NODE":"105.5490","OBJECT_TYPE":"PAYLOAD","MEAN_ANOMALY":"259.2929","CENTER_NAME":"EARTH","REF_FRAME":"TEME","TLE_LINE2":"2 46120  53.0540 105.5490 0001329 100.8209 259.2929 15.06415943157303","ARG_OF_PERICENTER":"100.8209","INCLINATION":"53.0540","GP_ID":"234208288","EPOCH":"2023-06-18T04:45:22.940352","NORAD_CAT_ID":"46120","SITE":"AFETR","BSTAR":"0.00084148000000","TLE_LINE1":"1 46120U 20057D   23169.19818218  .00012280  00000-0  84148-3 0  9997","PERIOD":"95.591","REV_AT_EPOCH":"15730","DECAY_DATE":null,"CLASSIFICATION_TYPE":"U"},{"ARG_OF_PERICENTER":"96.9486","TLE_LINE2":"2 46121  53.0539  84.2031 0001526  96.9486 263.1677 15.06409383157009","INCLINATION":"53.0539","COUNTRY_CODE":"US","OBJECT_TYPE":"PAYLOAD","RA_OF_ASC_NODE":"84.2031","MEAN_ANOMALY":"263.1677","CENTER_NAME":"EARTH","REF_FRAME":"TEME","FILE":"3936436","RCS_SIZE":"LARGE","EPHEMERIS_TYPE":"0","OBJECT_ID":"2020-057E","MEAN_MOTION_DOT":"0.00006356","MEAN_MOTION":"15.06409383","REV_AT_EPOCH":"15700","DECAY_DATE":null,"CLASSIFICATION_TYPE":"U","BSTAR":"0.00044508000000","TLE_LINE1":"1 46121U 20057E   23169.49858849  .00006356  00000-0  44508-3 0  9998","PERIOD":"95.592","SITE":"AFETR","GP_ID":"234215826","EPOCH":"2023-06-18T11:57:58.045536","NORAD_CAT_ID":"46121","TIME_SYSTEM":"UTC","APOAPSIS":"548.242","OBJECT_NAME":"STARLINK-1602","MEAN_MOTION_DDOT":"0.0000000000000","ELEMENT_SET_NO":"999","PERIAPSIS":"546.128","LAUNCH_DATE":"2020-08-18","ECCENTRICITY":"0.00015260","MEAN_ELEMENT_THEORY":"SGP4","SEMIMAJOR_AXIS":"6925.320"},{"OBJECT_NAME":"STARLINK-1604","ELEMENT_SET_NO":"999","MEAN_MOTION_DDOT":"0.0000000000000","TIME_SYSTEM":"UTC","APOAPSIS":"548.308","MEAN_ELEMENT_THEORY":"SGP4","SEMIMAJOR_AXIS":"6925.331","LAUNCH_DATE":"2020-08-18","PERIAPSIS":"546.084","ECCENTRICITY":"0.00016060","MEAN_MOTION_DOT":"0.00009541","MEAN_MOTION":"15.06405701","FILE":"3936437","RCS_SIZE":"LARGE","EPHEMERIS_TYPE":"0","OBJECT_ID":"2020-057F","COUNTRY_CODE":"US","RA_OF_ASC_NODE":"64.4624","OBJECT_TYPE":"PAYLOAD","MEAN_ANOMALY":"277.8352","CENTER_NAME":"EARTH","REF_FRAME":"TEME","ARG_OF_PERICENTER":"82.2819","TLE_LINE2":"2 46122  53.0536  64.4624 0001606  82.2819 277.8352 15.06405701157284","INCLINATION":"53.0536","GP_ID":"234215841","EPOCH":"2023-06-18T10:35:41.785440","NORAD_CAT_ID":"46122","SITE":"AFETR","BSTAR":"0.00065845000000","TLE_LINE1":"1 46122U 20057F   23169.44145585  .00009541  00000-0  65845-3 0  9996","PERIOD":"95.592","REV_AT_EPOCH":"15728","DECAY_DATE":null,"CLASSIFICATION_TYPE":"U"},{"SEMIMAJOR_AXIS":"6925.383","MEAN_ELEMENT_THEORY":"SGP4","PERIAPSIS":"546.316","LAUNCH_DATE":"2020-08-18","ECCENTRICITY":"0.00013450","ELEMENT_SET_NO":"999","MEAN_MOTION_DDOT":"0.0000000000000","OBJECT_NAME":"STARLINK-1605","TIME_SYSTEM":"UTC","APOAPSIS":"548.179","GP_ID":"234242003","EPOCH":"2023-06-18T19:47:42.165312","NORAD_CAT_ID":"46123","SITE":"AFETR","PERIOD":"95.593","BSTAR":"-0.00009364600000","TLE_LINE1":"1 46123U 20057G   23169.82479358 -.00001676  00000-0 -93646-4 0  9991","DECAY_DATE":null,"CLASSIFICATION_TYPE":"U","REV_AT_EPOCH":"15795","MEAN_MOTION":"15.06388925","MEAN_MOTION_DOT":"-0.00001676","OBJECT_ID":"2020-057G","EPHEMERIS_TYPE":"0","FILE":"3936745","RCS_SIZE":"LARGE","CENTER_NAME":"EARTH","REF_FRAME":"TEME","COUNTRY_CODE":"US","RA_OF_ASC_NODE":"62.7375","OBJECT_TYPE":"PAYLOAD","MEAN_ANOMALY":"271.6997","INCLINATION":"53.0543","TLE_LINE2":"2 46123  53.0543  62.7375 0001345  88.4146 271.6997 15.06388925157957","ARG_OF_PERICENTER":"88.4146"},{"OBJECT_NAME":"STARLINK-1614","ELEMENT_SET_NO":"999","MEAN_MOTION_DDOT":"0.0000000000000","APOAPSIS":"549.081","TIME_SYSTEM":"UTC","MEAN_ELEMENT_THEORY":"SGP4","SEMIMAJOR_AXIS":"6925.345","ECCENTRICITY":"0.00027010","LAUNCH_DATE":"2020-08-18","PERIAPSIS":"545.340","MEAN_MOTION_DOT":"0.00011096","MEAN_MOTION":"15.06401133","RCS_SIZE":"LARGE","FILE":"3936745","EPHEMERIS_TYPE":"0","OBJECT_ID":"2020-057H","RA_OF_ASC_NODE":"63.3084","OBJECT_TYPE":"PAYLOAD","MEAN_ANOMALY":"282.9234","COUNTRY_CODE":"US","REF_FRAME":"TEME","CENTER_NAME":"EARTH","TLE_LINE2":"2 46124  53.0528  63.3084 0002701  77.2057 282.9234 15.06401133156662","ARG_OF_PERICENTER":"77.2057","INCLINATION":"53.0528","NORAD_CAT_ID":"46124","GP_ID":"234242753","EPOCH":"2023-06-18T16:47:14.436096","SITE":"AFETR","TLE_LINE1":"1 46124U 20057H   23169.69947264  .00011096  00000-0  76260-3 0  9990","BSTAR":"0.00076260000000","PERIOD":"95.592","REV_AT_EPOCH":"15666","DECAY_DATE":null,"CLASSIFICATION_TYPE":"U"},{"MEAN_ELEMENT_THEORY":"SGP4","SEMIMAJOR_AXIS":"6925.341","LAUNCH_DATE":"2020-08-18","PERIAPSIS":"546.380","ECCENTRICITY":"0.00011940","OBJECT_NAME":"STARLINK-1618","ELEMENT_SET_NO":"999","MEAN_MOTION_DDOT":"0.0000000000000","TIME_SYSTEM":"UTC","APOAPSIS":"548.033","SITE":"AFETR","EPOCH":"2023-06-18T13:09:38.625408","GP_ID":"234243502","NORAD_CAT_ID":"46125","REV_AT_EPOCH":"15733","DECAY_DATE":null,"CLASSIFICATION_TYPE":"U","BSTAR":"0.00084308000000","TLE_LINE1":"1 46125U 20057J   23169.54836372  .00012299  00000-0  84308-3 0  9990","PERIOD":"95.592","FILE":"3936745","RCS_SIZE":"LARGE","OBJECT_ID":"2020-057J","EPHEMERIS_TYPE":"0","MEAN_MOTION_DOT":"0.00012299","MEAN_MOTION":"15.06402335","ARG_OF_PERICENTER":"82.1751","TLE_LINE2":"2 46125  53.0537 103.9835 0001194  82.1751 277.9374 15.06402335157338","INCLINATION":"53.0537","COUNTRY_CODE":"US","OBJECT_TYPE":"PAYLOAD","MEAN_ANOMALY":"277.9374","RA_OF_ASC_NODE":"103.9835","CENTER_NAME":"EARTH","REF_FRAME":"TEME"},{"TIME_SYSTEM":"UTC","APOAPSIS":"547.987","MEAN_MOTION_DDOT":"0.0000000000000","ELEMENT_SET_NO":"999","OBJECT_NAME":"STARLINK-1619","LAUNCH_DATE":"2020-08-18","PERIAPSIS":"546.408","ECCENTRICITY":"0.00011400","SEMIMAJOR_AXIS":"6925.332","MEAN_ELEMENT_THEORY":"SGP4","INCLINATION":"53.0534","TLE_LINE2":"2 46126  53.0534 104.0954 0001140  98.6018 261.5100 15.06405308156731","ARG_OF_PERICENTER":"98.6018","CENTER_NAME":"EARTH","REF_FRAME":"TEME","COUNTRY_CODE":"US","RA_OF_ASC_NODE":"104.0954","OBJECT_TYPE":"PAYLOAD","MEAN_ANOMALY":"261.5100","EPHEMERIS_TYPE":"0","OBJECT_ID":"2020-057K","FILE":"3936440","RCS_SIZE":"LARGE","MEAN_MOTION":"15.06405308","MEAN_MOTION_DOT":"0.00007447","DECAY_DATE":null,"CLASSIFICATION_TYPE":"U","REV_AT_EPOCH":"15673","PERIOD":"95.592","BSTAR":"0.00051824000000","TLE_LINE1":"1 46126U 20057K   23169.52255285  .00007447  00000-0  51824-3 0  9993","SITE":"AFETR","EPOCH":"2023-06-18T12:32:28.566240","GP_ID":"234215896","NORAD_CAT_ID":"46126"},{"PERIOD":"95.592","TLE_LINE1":"1 46127U 20057L   23169.77873170  .00008709  00000-0  60266-3 0  9992","BSTAR":"0.00060266000000","DECAY_DATE":null,"CLASSIFICATION_TYPE":"U","REV_AT_EPOCH":"15638","NORAD_CAT_ID":"46127","EPOCH":"2023-06-18T18:41:22.418880","GP_ID":"234242503","SITE":"AFETR","REF_FRAME":"TEME","CENTER_NAME":"EARTH","RA_OF_ASC_NODE":"82.9475","OBJECT_TYPE":"PAYLOAD","MEAN_ANOMALY":"259.3011","COUNTRY_CODE":"US","INCLINATION":"53.0546","ARG_OF_PERICENTER":"100.8113","TLE_LINE2":"2 46127  53.0546  82.9475 0001194 100.8113 259.3011 15.06408475156383","MEAN_MOTION":"15.06408475","MEAN_MOTION_DOT":"0.00008709","OBJECT_ID":"2020-057L","EPHEMERIS_TYPE":"0","RCS_SIZE":"LARGE","FILE":"3936745","ECCENTRICITY":"0.00011940","PERIAPSIS":"546.361","LAUNCH_DATE":"2020-08-18","SEMIMAJOR_AXIS":"6925.323","MEAN_ELEMENT_THEORY":"SGP4","APOAPSIS":"548.014","TIME_SYSTEM":"UTC","ELEMENT_SET_NO":"999","MEAN_MOTION_DDOT":"0.0000000000000","OBJECT_NAME":"STARLINK-1621"},{"ECCENTRICITY":"0.00008400","LAUNCH_DATE":"2020-08-18","PERIAPSIS":"546.653","SEMIMAJOR_AXIS":"6925.370","MEAN_ELEMENT_THEORY":"SGP4","APOAPSIS":"547.817","TIME_SYSTEM":"UTC","ELEMENT_SET_NO":"999","MEAN_MOTION_DDOT":"0.0000000000000","OBJECT_NAME":"STARLINK-1622","PERIOD":"95.593","TLE_LINE1":"1 46128U 20057M   23169.80636164  .00011852  00000-0  81338-3 0  9993","BSTAR":"0.00081338000000","DECAY_DATE":null,"CLASSIFICATION_TYPE":"U","REV_AT_EPOCH":"15667","NORAD_CAT_ID":"46128","EPOCH":"2023-06-18T19:21:09.645696","GP_ID":"234242254","SITE":"AFETR","REF_FRAME":"TEME","CENTER_NAME":"EARTH","RA_OF_ASC_NODE":"62.8257","OBJECT_TYPE":"PAYLOAD","MEAN_ANOMALY":"240.2326","COUNTRY_CODE":"US","INCLINATION":"53.0557","TLE_LINE2":"2 46128  53.0557  62.8257 0000840 119.8746 240.2326 15.06393054156676","ARG_OF_PERICENTER":"119.8746","MEAN_MOTION":"15.06393054","MEAN_MOTION_DOT":"0.00011852","EPHEMERIS_TYPE":"0","OBJECT_ID":"2020-057M","RCS_SIZE":"LARGE","FILE":"3936745"},{"OBJECT_NAME":"STARLINK-1623","MEAN_MOTION_DDOT":"0.0000000000000","ELEMENT_SET_NO":"999","APOAPSIS":"548.360","TIME_SYSTEM":"UTC","MEAN_ELEMENT_THEORY":"SGP4","SEMIMAJOR_AXIS":"6925.334","ECCENTRICITY":"0.00016770","PERIAPSIS":"546.037","LAUNCH_DATE":"2020-08-18","RCS_SIZE":"LARGE","FILE":"3936464","OBJECT_ID":"2020-057N","EPHEMERIS_TYPE":"0","MEAN_MOTION_DOT":"0.00007987","MEAN_MOTION":"15.06404802","TLE_LINE2":"2 46129  53.0525  64.4254 0001677 111.4080 248.7087 15.06404802157284","ARG_OF_PERICENTER":"111.4080","INCLINATION":"53.0525","RA_OF_ASC_NODE":"64.4254","OBJECT_TYPE":"PAYLOAD","MEAN_ANOMALY":"248.7087","COUNTRY_CODE":"US","REF_FRAME":"TEME","CENTER_NAME":"EARTH","SITE":"AFETR","NORAD_CAT_ID":"46129","GP_ID":"234215921","EPOCH":"2023-06-18T10:46:19.456320","REV_AT_EPOCH":"15728","CLASSIFICATION_TYPE":"U","DECAY_DATE":null,"TLE_LINE1":"1 46129U 20057N   23169.44883630  .00007987  00000-0  55438-3 0  9992","BSTAR":"0.00055438000000","PERIOD":"95.592"}];
